[{"OBJECT_NAME":"SEEDS II (CO-66)","OBJECT_ID":"2008-021J","EPOCH":"2026-03-09T22:06:22.421376","MEAN_MOTION":15.29097236,"ECCENTRICITY":0.00014475,"INCLINATION":97.7519,"RA_OF_ASC_NODE":62.3611,"ARG_OF_PERICENTER":359.2618,"MEAN_ANOMALY":0.8619,"EPHEMERIS_TYPE":0,"CLASSIFICATION_TYPE":"U","NORAD_CAT_ID":32791,"ELEMENT_SET_NO":999,"REV_AT_EPOCH":97210,"BSTAR":0.00084213052,"MEAN_MOTION_DOT":0.00023758,"MEAN_MOTION_DDOT":0},{"OBJECT_NAME":"STARLINK-31076","OBJECT_ID":"2024-005J","EPOCH":"2026-03-09T19:20:25.950624","MEAN_MOTION":15.26848336,"ECCENTRICITY":9.596e-5,"INCLINATION":43.0014,"RA_OF_ASC_NODE":218.9048,"ARG_OF_PERICENTER":250.7068,"MEAN_ANOMALY":109.368,"EPHEMERIS_TYPE":0,"CLASSIFICATION_TYPE":"U","NORAD_CAT_ID":58736,"ELEMENT_SET_NO":999,"REV_AT_EPOCH":12050,"BSTAR":-0.00028151452,"MEAN_MOTION_DOT":-7.828e-5,"MEAN_MOTION_DDOT":0}]
