SEEDS II (CO-66)        
1 32791U 08021J   26068.92109284  .00023758  00000+0  84213-3 0  9995
2 32791  97.7519  62.3611 0001448 359.2618   0.8619 15.29097235972108
STARLINK-31076          
1 58736U 24005J   26068.80585591 -.00007828  00000+0 -28151-3 0  9999
2 58736  43.0014 218.9048 0000959 250.7068 109.3680 15.26848336120507
